{
    "links": {
        "self": "http://www.neowsapp.com/rest/v1/neo/3764799?api_key=iIulBulltgU6a56xZRHN4H3l9WmuAYTsLGpBGhQ2"
    },
    "id": "3764799",
    "neo_reference_id": "3764799",
    "name": "(2016 WM7)",
    "designation": "2016 WM7",
    "nasa_jpl_url": "http://ssd.jpl.nasa.gov/sbdb.cgi?sstr=3764799",
    "absolute_magnitude_h": 26.0,
    "estimated_diameter": {
        "kilometers": {
            "estimated_diameter_min": 0.0167708462,
            "estimated_diameter_max": 0.0375007522
        },
        "meters": {
            "estimated_diameter_min": 16.7708462163,
            "estimated_diameter_max": 37.5007521798
        },
        "miles": {
            "estimated_diameter_min": 0.0104209175,
            "estimated_diameter_max": 0.0233018799
        },
        "feet": {
            "estimated_diameter_min": 55.0224631002,
            "estimated_diameter_max": 123.0339677816
        }
    },
    "is_potentially_hazardous_asteroid": false,
    "close_approach_data": [
        {
            "close_approach_date": "2009-12-14",
            "close_approach_date_full": "2009-Dec-14 05:50",
            "epoch_date_close_approach": 1260769800000,
            "relative_velocity": {
                "kilometers_per_second": "13.1143712543",
                "kilometers_per_hour": "47211.7365154364",
                "miles_per_hour": "29335.5370587166"
            },
            "miss_distance": {
                "astronomical": "0.2806010381",
                "lunar": "109.1538038209",
                "kilometers": "41977317.619548847",
                "miles": "26083495.6610222086"
            },
            "orbiting_body": "Earth"
        },
        {
            "close_approach_date": "2016-11-20",
            "close_approach_date_full": "2016-Nov-20 05:47",
            "epoch_date_close_approach": 1479620820000,
            "relative_velocity": {
                "kilometers_per_second": "5.4681030589",
                "kilometers_per_hour": "19685.1710120712",
                "miles_per_hour": "12231.5997324728"
            },
            "miss_distance": {
                "astronomical": "0.0364268445",
                "lunar": "14.1700425105",
                "kilometers": "5449378.348021215",
                "miles": "3386086.690534167"
            },
            "orbiting_body": "Earth"
        },
        {
            "close_approach_date": "2037-08-29",
            "close_approach_date_full": "2037-Aug-29 23:08",
            "epoch_date_close_approach": 2135200080000,
            "relative_velocity": {
                "kilometers_per_second": "16.805490774",
                "kilometers_per_hour": "60499.7667865688",
                "miles_per_hour": "37592.2023124655"
            },
            "miss_distance": {
                "astronomical": "0.4148551042",
                "lunar": "161.3786355338",
                "kilometers": "62061439.946948054",
                "miles": "38563190.5841249852"
            },
            "orbiting_body": "Earth"
        }
    ],
    "orbital_data": {
        "orbit_id": "8",
        "orbit_determination_date": "2017-04-06 08:21:57",
        "first_observation_date": "2016-11-24",
        "last_observation_date": "2016-12-21",
        "data_arc_in_days": 27,
        "observations_used": 42,
        "orbit_uncertainty": "7",
        "minimum_orbit_intersection": ".0251906",
        "jupiter_tisserand_invariant": "4.591",
        "epoch_osculation": "2459000.5",
        "eccentricity": ".3100754069404844",
        "semi_major_axis": "1.449864164444187",
        "inclination": "3.403559067273684",
        "ascending_node_longitude": "248.1535216581033",
        "orbital_period": "637.660331348692",
        "perihelion_distance": "1.00029694364573",
        "perihelion_argument": "148.8933275725134",
        "aphelion_distance": "1.899431385242643",
        "perihelion_time": "2458970.511400925669",
        "mean_anomaly": "16.93048028238661",
        "mean_motion": ".5645638944460873",
        "equinox": "J2000",
        "orbit_class": {
            "orbit_class_type": "APO",
            "orbit_class_description": "Near-Earth asteroid orbits which cross the Earth’s orbit similar to that of 1862 Apollo",
            "orbit_class_range": "a (semi-major axis) > 1.0 AU; q (perihelion) < 1.017 AU"
        }
    },
    "is_sentry_object": false
}